[{"OBJECT_NAME":"ALOS (DAICHI)","OBJECT_ID":"2006-002A","EPOCH":"2026-04-27T20:32:53.653920","MEAN_MOTION":14.69943661,"ECCENTRICITY":0.000197,"INCLINATION":98.129,"RA_OF_ASC_NODE":73.5959,"ARG_OF_PERICENTER":102.2679,"MEAN_ANOMALY":257.8747,"EPHEMERIS_TYPE":0,"CLASSIFICATION_TYPE":"U","NORAD_CAT_ID":28931,"ELEMENT_SET_NO":999,"REV_AT_EPOCH":8070,"BSTAR":0.0002055,"MEAN_MOTION_DOT":1.181e-5,"MEAN_MOTION_DDOT":0},{"OBJECT_NAME":"H-2A R/B","OBJECT_ID":"2006-002B","EPOCH":"2026-04-27T16:26:58.153056","MEAN_MOTION":15.17418903,"ECCENTRICITY":0.0052406,"INCLINATION":98.2499,"RA_OF_ASC_NODE":268.9913,"ARG_OF_PERICENTER":75.4999,"MEAN_ANOMALY":285.2038,"EPHEMERIS_TYPE":0,"CLASSIFICATION_TYPE":"U","NORAD_CAT_ID":28932,"ELEMENT_SET_NO":999,"REV_AT_EPOCH":10186,"BSTAR":0.00045025,"MEAN_MOTION_DOT":9.252e-5,"MEAN_MOTION_DDOT":0},{"OBJECT_NAME":"RESURS-DK 1","OBJECT_ID":"2006-021A","EPOCH":"2026-04-27T09:30:54.380736","MEAN_MOTION":15.12996012,"ECCENTRICITY":0.0003437,"INCLINATION":69.9312,"RA_OF_ASC_NODE":111.0065,"ARG_OF_PERICENTER":337.8539,"MEAN_ANOMALY":22.2478,"EPHEMERIS_TYPE":0,"CLASSIFICATION_TYPE":"U","NORAD_CAT_ID":29228,"ELEMENT_SET_NO":999,"REV_AT_EPOCH":9489,"BSTAR":0.00018027,"MEAN_MOTION_DOT":3.083e-5,"MEAN_MOTION_DDOT":0},{"OBJECT_NAME":"CZ-4B R/B","OBJECT_ID":"2006-046C","EPOCH":"2026-04-27T16:18:55.245312","MEAN_MOTION":15.17368445,"ECCENTRICITY":0.0034599,"INCLINATION":97.5506,"RA_OF_ASC_NODE":162.4466,"ARG_OF_PERICENTER":97.7468,"MEAN_ANOMALY":262.7696,"EPHEMERIS_TYPE":0,"CLASSIFICATION_TYPE":"U","NORAD_CAT_ID":29507,"ELEMENT_SET_NO":999,"REV_AT_EPOCH":6747,"BSTAR":0.00026509,"MEAN_MOTION_DOT":5.305e-5,"MEAN_MOTION_DDOT":0},{"OBJECT_NAME":"CZ-2C R/B","OBJECT_ID":"2007-010B","EPOCH":"2026-04-27T19:54:45.001728","MEAN_MOTION":14.20263058,"ECCENTRICITY":0.0059667,"INCLINATION":98.4037,"RA_OF_ASC_NODE":228.6588,"ARG_OF_PERICENTER":150.4212,"MEAN_ANOMALY":210.0362,"EPHEMERIS_TYPE":0,"CLASSIFICATION_TYPE":"U","NORAD_CAT_ID":31114,"ELEMENT_SET_NO":999,"REV_AT_EPOCH":98669,"BSTAR":7.6899e-5,"MEAN_MOTION_DOT":1.27e-6,"MEAN_MOTION_DDOT":0},{"OBJECT_NAME":"COSMO-SKYMED 1","OBJECT_ID":"2007-023A","EPOCH":"2026-04-27T19:15:36.208224","MEAN_MOTION":14.96851266,"ECCENTRICITY":0.000155,"INCLINATION":97.8867,"RA_OF_ASC_NODE":309.2394,"ARG_OF_PERICENTER":100.3058,"MEAN_ANOMALY":259.8338,"EPHEMERIS_TYPE":0,"CLASSIFICATION_TYPE":"U","NORAD_CAT_ID":31598,"ELEMENT_SET_NO":999,"REV_AT_EPOCH":2225,"BSTAR":0.00029742,"MEAN_MOTION_DOT":3.35e-5,"MEAN_MOTION_DDOT":0},{"OBJECT_NAME":"COSMOS 2428","OBJECT_ID":"2007-029A","EPOCH":"2026-04-27T15:59:40.047936","MEAN_MOTION":14.12944888,"ECCENTRICITY":0.0008991,"INCLINATION":70.9392,"RA_OF_ASC_NODE":100.5418,"ARG_OF_PERICENTER":222.4516,"MEAN_ANOMALY":137.591,"EPHEMERIS_TYPE":0,"CLASSIFICATION_TYPE":"U","NORAD_CAT_ID":31792,"ELEMENT_SET_NO":999,"REV_AT_EPOCH":97101,"BSTAR":-6.8892e-5,"MEAN_MOTION_DOT":-1.76e-6,"MEAN_MOTION_DDOT":0},{"OBJECT_NAME":"SL-16 R/B","OBJECT_ID":"2007-029B","EPOCH":"2026-04-27T20:00:48.929760","MEAN_MOTION":14.14846197,"ECCENTRICITY":0.0002486,"INCLINATION":70.9753,"RA_OF_ASC_NODE":69.0763,"ARG_OF_PERICENTER":267.834,"MEAN_ANOMALY":112.9727,"EPHEMERIS_TYPE":0,"CLASSIFICATION_TYPE":"U","NORAD_CAT_ID":31793,"ELEMENT_SET_NO":999,"REV_AT_EPOCH":97232,"BSTAR":0.00020899,"MEAN_MOTION_DOT":3.56e-6,"MEAN_MOTION_DDOT":0},{"OBJECT_NAME":"KORONAS-FOTON","OBJECT_ID":"2009-003A","EPOCH":"2026-04-27T19:47:46.985568","MEAN_MOTION":15.44631924,"ECCENTRICITY":0.0009623,"INCLINATION":82.4315,"RA_OF_ASC_NODE":224.7438,"ARG_OF_PERICENTER":343.701,"MEAN_ANOMALY":16.3927,"EPHEMERIS_TYPE":0,"CLASSIFICATION_TYPE":"U","NORAD_CAT_ID":33504,"ELEMENT_SET_NO":999,"REV_AT_EPOCH":95332,"BSTAR":0.00034456,"MEAN_MOTION_DOT":0.00016112,"MEAN_MOTION_DDOT":0},{"OBJECT_NAME":"CZ-2C R/B","OBJECT_ID":"2011-030B","EPOCH":"2026-04-27T20:31:13.357344","MEAN_MOTION":14.81360291,"ECCENTRICITY":0.0052082,"INCLINATION":97.8618,"RA_OF_ASC_NODE":74.1669,"ARG_OF_PERICENTER":188.7673,"MEAN_ANOMALY":230.197,"EPHEMERIS_TYPE":0,"CLASSIFICATION_TYPE":"U","NORAD_CAT_ID":37731,"ELEMENT_SET_NO":999,"REV_AT_EPOCH":79737,"BSTAR":0.00014217,"MEAN_MOTION_DOT":1.082e-5,"MEAN_MOTION_DDOT":0},{"OBJECT_NAME":"H-2A R/B","OBJECT_ID":"2012-025E","EPOCH":"2026-04-27T20:16:26.755968","MEAN_MOTION":14.95448762,"ECCENTRICITY":0.0044815,"INCLINATION":98.4786,"RA_OF_ASC_NODE":88.8641,"ARG_OF_PERICENTER":150.5366,"MEAN_ANOMALY":209.8393,"EPHEMERIS_TYPE":0,"CLASSIFICATION_TYPE":"U","NORAD_CAT_ID":38341,"ELEMENT_SET_NO":999,"REV_AT_EPOCH":75556,"BSTAR":0.00024572,"MEAN_MOTION_DOT":2.702e-5,"MEAN_MOTION_DDOT":0},{"OBJECT_NAME":"SHIJIAN-16 (SJ-16)","OBJECT_ID":"2013-057A","EPOCH":"2026-04-27T21:35:51.234720","MEAN_MOTION":14.92483252,"ECCENTRICITY":0.0016294,"INCLINATION":74.9706,"RA_OF_ASC_NODE":91.9149,"ARG_OF_PERICENTER":347.1921,"MEAN_ANOMALY":12.885,"EPHEMERIS_TYPE":0,"CLASSIFICATION_TYPE":"U","NORAD_CAT_ID":39358,"ELEMENT_SET_NO":999,"REV_AT_EPOCH":67884,"BSTAR":0.00021079,"MEAN_MOTION_DOT":2.139e-5,"MEAN_MOTION_DDOT":0},{"OBJECT_NAME":"SL-4 R/B","OBJECT_ID":"2014-021B","EPOCH":"2026-04-26T23:20:59.872416","MEAN_MOTION":15.40714856,"ECCENTRICITY":0.00926864,"INCLINATION":51.6052,"RA_OF_ASC_NODE":101.435,"ARG_OF_PERICENTER":279.6416,"MEAN_ANOMALY":79.4108,"EPHEMERIS_TYPE":0,"CLASSIFICATION_TYPE":"U","NORAD_CAT_ID":39679,"ELEMENT_SET_NO":999,"REV_AT_EPOCH":66371,"BSTAR":0.00031580628,"MEAN_MOTION_DOT":0.00014856,"MEAN_MOTION_DDOT":0},{"OBJECT_NAME":"ALOS-2","OBJECT_ID":"2014-029A","EPOCH":"2026-04-27T16:26:29.728320","MEAN_MOTION":14.79478328,"ECCENTRICITY":0.0001697,"INCLINATION":97.9199,"RA_OF_ASC_NODE":215.5716,"ARG_OF_PERICENTER":84.5222,"MEAN_ANOMALY":275.6183,"EPHEMERIS_TYPE":0,"CLASSIFICATION_TYPE":"U","NORAD_CAT_ID":39766,"ELEMENT_SET_NO":999,"REV_AT_EPOCH":64411,"BSTAR":1.7935e-5,"MEAN_MOTION_DOT":8.3e-7,"MEAN_MOTION_DDOT":0},{"OBJECT_NAME":"YAOGAN-29","OBJECT_ID":"2015-069A","EPOCH":"2026-04-27T20:18:03.906720","MEAN_MOTION":14.83044037,"ECCENTRICITY":0.0001877,"INCLINATION":98.0077,"RA_OF_ASC_NODE":146.3914,"ARG_OF_PERICENTER":136.3023,"MEAN_ANOMALY":223.8339,"EPHEMERIS_TYPE":0,"CLASSIFICATION_TYPE":"U","NORAD_CAT_ID":41038,"ELEMENT_SET_NO":999,"REV_AT_EPOCH":56316,"BSTAR":0.00010366,"MEAN_MOTION_DOT":7.89e-6,"MEAN_MOTION_DDOT":0},{"OBJECT_NAME":"ASTRO-H (HITOMI)","OBJECT_ID":"2016-012A","EPOCH":"2026-04-27T11:29:52.816992","MEAN_MOTION":15.10284903,"ECCENTRICITY":0.0009378,"INCLINATION":30.9999,"RA_OF_ASC_NODE":41.6202,"ARG_OF_PERICENTER":102.9837,"MEAN_ANOMALY":257.1849,"EPHEMERIS_TYPE":0,"CLASSIFICATION_TYPE":"U","NORAD_CAT_ID":41337,"ELEMENT_SET_NO":999,"REV_AT_EPOCH":55961,"BSTAR":0.00019244,"MEAN_MOTION_DOT":3.327e-5,"MEAN_MOTION_DDOT":0},{"OBJECT_NAME":"HXMT (HUIYAN)","OBJECT_ID":"2017-034A","EPOCH":"2026-04-27T20:54:58.259232","MEAN_MOTION":15.18007999,"ECCENTRICITY":0.003171,"INCLINATION":43.013,"RA_OF_ASC_NODE":103.1099,"ARG_OF_PERICENTER":188.5076,"MEAN_ANOMALY":171.5238,"EPHEMERIS_TYPE":0,"CLASSIFICATION_TYPE":"U","NORAD_CAT_ID":42758,"ELEMENT_SET_NO":999,"REV_AT_EPOCH":49001,"BSTAR":0.00020801,"MEAN_MOTION_DOT":4.12e-5,"MEAN_MOTION_DDOT":0}]
