ALOS (DAICHI)           
1 28931U 06002A   26117.85617655  .00001181  00000+0  20550-3 0  9996
2 28931  98.1290  73.5959 0001970 102.2679 257.8747 14.69943661 80700
H-2A R/B                
1 28932U 06002B   26117.68539529  .00009252  00000+0  45025-3 0  9992
2 28932  98.2499 268.9913 0052406  75.4999 285.2038 15.17418903101868
RESURS-DK 1             
1 29228U 06021A   26117.39646274  .00003083  00000+0  18027-3 0  9994
2 29228  69.9312 111.0065 0003437 337.8539  22.2478 15.12996012 94895
CZ-4B R/B               
1 29507U 06046C   26117.67980608  .00005305  00000+0  26509-3 0  9997
2 29507  97.5506 162.4466 0034599  97.7468 262.7696 15.17368445 67473
CZ-2C R/B               
1 31114U 07010B   26117.82968752  .00000127  00000+0  76899-4 0  9994
2 31114  98.4037 228.6588 0059667 150.4212 210.0362 14.20263058986693
COSMO-SKYMED 1          
1 31598U 07023A   26117.80250241  .00003350  00000+0  29742-3 0  9994
2 31598  97.8867 309.2394 0001550 100.3058 259.8338 14.96851266 22258
COSMOS 2428             
1 31792U 07029A   26117.66643574 -.00000176  00000+0 -68892-4 0  9990
2 31792  70.9392 100.5418 0008991 222.4516 137.5910 14.12944888971015
SL-16 R/B               
1 31793U 07029B   26117.83389965  .00000356  00000+0  20899-3 0  9993
2 31793  70.9753  69.0763 0002486 267.8340 112.9727 14.14846197972324
KORONAS-FOTON           
1 33504U 09003A   26117.82484937  .00016112  00000+0  34456-3 0  9994
2 33504  82.4315 224.7438 0009623 343.7010  16.3927 15.44631924953327
CZ-2C R/B               
1 37731U 11030B   26117.85501571  .00001082  00000+0  14217-3 0  9993
2 37731  97.8618  74.1669 0052082 188.7673 230.1970 14.81360291797372
H-2A R/B                
1 38341U 12025E   26117.84475412  .00002702  00000+0  24572-3 0  9994
2 38341  98.4786  88.8641 0044815 150.5366 209.8393 14.95448762755568
SHIJIAN-16 (SJ-16)      
1 39358U 13057A   26117.89989855  .00002139  00000+0  21079-3 0  9998
2 39358  74.9706  91.9149 0016294 347.1921  12.8850 14.92483252678842
SL-4 R/B                
1 39679U 14021B   26116.97291519  .00014856  00000+0  31581-3 0  9995
2 39679  51.6052 101.4350 0092686 279.6416  79.4108 15.40714856663718
ALOS-2                  
1 39766U 14029A   26117.68506630  .00000083  00000+0  17935-4 0  9997
2 39766  97.9199 215.5716 0001697  84.5222 275.6183 14.79478328644111
YAOGAN-29               
1 41038U 15069A   26117.84587855  .00000789  00000+0  10366-3 0  9996
2 41038  98.0077 146.3914 0001877 136.3023 223.8339 14.83044037563163
ASTRO-H (HITOMI)        
1 41337U 16012A   26117.47908353  .00003327  00000+0  19244-3 0  9991
2 41337  30.9999  41.6202 0009378 102.9837 257.1849 15.10284903559616
HXMT (HUIYAN)           
1 42758U 17034A   26117.87150763  .00004120  00000+0  20801-3 0  9995
2 42758  43.0130 103.1099 0031710 188.5076 171.5238 15.18007999490019
